CELESTIS-02             
1 25160U 98007D   22308.77277167  .00000062  00000+0  85355-4 0  9994
2 25160 107.9833 189.3324 0063870 231.2602 169.3960 14.21659645282804
CELESTIS-03             
1 26034U 99070C   22308.82881339  .00037351  00000+0  15287-2 0  9990
2 26034  98.3072 329.2187 0009434  22.7301 337.4350 15.24185254242418
